{
  "norad_id": 64780,
  "name": "STARLINK-34491",
  "history": [
    {
      "epoch": "2026-03-28T13:23:46.911840Z",
      "apogee_km": 476.0767791597209,
      "perigee_km": 474.3497348949504,
      "latitude_deg": -1.2413623985605942e-05,
      "longitude_deg": 127.96151982154436,
      "height_km": 475.8674815670184,
      "semi_major_axis_km": 6853.350257027335,
      "eccentricity": 0.000126,
      "inclination_deg": 53.1591,
      "raan_deg": 154.8839,
      "arg_perigee_deg": 73.5975,
      "mean_anomaly_deg": 286.5164,
      "mean_motion_rev_day": 15.30200607
    }
  ]
}